NORAD_CAT_ID,OBJECT_NAME,OBJECT_TYPE,EPOCH,MEAN_MOTION,ECCENTRICITY,INCLINATION,RA_OF_ASC_NODE,ARG_OF_PERICENTER,MEAN_ANOMALY,BSTAR,MEAN_MOTION_DOT,MEAN_MOTION_DDOT,TLE_LINE0,TLE_LINE1,TLE_LINE2,SEMIMAJOR_AXIS,PERIOD,APOGEE,PERIGEE,DECAYED
52471.0,STARLINK-3862,PAYLOAD,2023-03-07 22:11:13,15.08860536,0.0001739,53.2135,307.195,61.7543,298.3624,0.0011639,0.00018294,0.0,0 STARLINK-3862,1 52471U 22049W   23066.92445653  .00018294  00000-0  11639-2 0  9997,2 52471  53.2135 307.1950 0001739  61.7543 298.3624 15.08860536 46524,6917.818,95.436,540.886,538.48,0.0
52471.0,STARLINK-3862,PAYLOAD,2023-03-08 01:21:59,15.08867047,0.0001774,53.2135,306.6,63.0338,297.0835,0.0012452,0.000196,0.0,0 STARLINK-3862,1 52471U 22049W   23067.05693451  .00019600  00000-0  12452-2 0  9999,2 52471  53.2135 306.6000 0001774  63.0338 297.0835 15.08867047 46704,6917.798,95.436,540.89,538.436,0.0
52471.0,STARLINK-3862,PAYLOAD,2023-03-08 22:02:00,15.0884646,0.0001412,53.2133,302.7325,85.2937,274.8217,0.00068387,0.00010614,0.0,0 STARLINK-3862,1 52471U 22049W   23067.91806016  .00010614  00000-0  68387-3 0  9992,2 52471  53.2133 302.7325 0001412  85.2937 274.8217 15.08846460 46836,6917.861,95.437,540.702,538.749,0.0
52471.0,STARLINK-3862,PAYLOAD,2023-03-09 18:42:01,15.0884832,0.0001076,53.2148,298.8668,87.4816,272.63,0.00086235,0.00013466,0.0,0 STARLINK-3862,1 52471U 22049W   23068.77918323  .00013466  00000-0  86235-3 0  9992,2 52471  53.2148 298.8668 0001076  87.4816 272.6300 15.08848320 46963,6917.855,95.437,540.464,538.976,0.0
52471.0,STARLINK-3862,PAYLOAD,2023-03-09 21:52:47,15.08858986,0.0001188,53.2162,298.2727,78.1427,281.9699,0.0013025,0.00020513,0.0,0 STARLINK-3862,1 52471U 22049W   23068.91166178  .00020513  00000-0  13025-2 0  9998,2 52471  53.2162 298.2727 0001188  78.1427 281.9699 15.08858986 46826,6917.822,95.436,540.509,538.866,0.0
52471.0,STARLINK-3862,PAYLOAD,2023-03-10 01:03:33,15.08861985,0.0001235,53.2153,297.6744,77.484,282.629,0.0020274,0.00032145,0.0,0 STARLINK-3862,1 52471U 22049W   23069.04414101  .00032145  00000-0  20274-2 0  9993,2 52471  53.2153 297.6744 0001235  77.4840 282.6290 15.08861985 47001,6917.813,95.436,540.533,538.824,0.0
52471.0,STARLINK-3862,PAYLOAD,2023-03-10 21:43:34,15.08843139,0.0001175,53.2164,293.8111,100.8895,259.2229,0.00047995,7.359e-05,0.0,0 STARLINK-3862,1 52471U 22049W   23069.90526533  .00007359  00000-0  47995-3 0  9990,2 52471  53.2164 293.8111 0001175 100.8895 259.2229 15.08843139 46971,6917.871,95.437,540.549,538.923,0.0
52471.0,STARLINK-3862,PAYLOAD,2023-03-11 05:40:30,15.08845409,0.0001033,53.2151,292.3228,102.7327,257.3781,0.0011733,0.00018437,0.0,0 STARLINK-3862,1 52471U 22049W   23070.23646716  .00018437  00000-0  11733-2 0  9993,2 52471  53.2151 292.3228 0001033 102.7327 257.3781 15.08845409 47182,6917.864,95.437,540.443,539.014,0.0
52471.0,STARLINK-3862,PAYLOAD,2023-03-12 00:45:08,15.0884662,0.0001162,53.2155,288.7522,95.4832,264.6293,0.0013203,0.00020791,0.0,0 STARLINK-3862,1 52471U 22049W   23071.03134874  .00020791  00000-0  13203-2 0  9999,2 52471  53.2155 288.7522 0001162  95.4832 264.6293 15.08846620 47303,6917.86,95.437,540.529,538.921,0.0
52471.0,STARLINK-3862,PAYLOAD,2023-03-12 19:49:45,15.08853405,0.0001179,53.2157,285.1819,99.2072,260.9054,0.00039849,6.062e-05,0.0,0 STARLINK-3862,1 52471U 22049W   23071.82622258  .00006062  00000-0  39849-3 0  9994,2 52471  53.2157 285.1819 0001179  99.2072 260.9054 15.08853405 47427,6917.839,95.437,540.52,538.889,0.0
52471.0,STARLINK-3862,PAYLOAD,2023-03-13 13:19:00,15.08824875,0.0001122,53.216,281.9153,84.7492,275.3628,-0.00027783,-4.705e-05,0.0,0 STARLINK-3862,1 52471U 22049W   23072.55487076 -.00004705  00000-0 -27783-3 0  9990,2 52471  53.2160 281.9153 0001122  84.7492 275.3628 15.08824875 47537,6917.927,95.439,540.568,539.015,0.0
52471.0,STARLINK-3862,PAYLOAD,2023-03-13 21:15:56,15.08829815,0.0001104,53.2153,280.428,75.134,284.9774,-0.00014179,-2.543e-05,0.0,0 STARLINK-3862,1 52471U 22049W   23072.88607164 -.00002543  00000-0 -14179-3 0  9991,2 52471  53.2153 280.4280 0001104  75.1340 284.9774 15.08829815 47425,6917.912,95.438,540.54,539.013,0.0
52471.0,STARLINK-3862,PAYLOAD,2023-03-14 02:02:05,15.08835592,0.0001141,53.215,279.5346,71.9521,288.1596,-3.119e-06,-3.37e-06,0.0,0 STARLINK-3862,1 52471U 22049W   23073.08479079 -.00000337  00000-0 -31190-5 0  9999,2 52471  53.2150 279.5346 0001141  71.9521 288.1596 15.08835592 47618,6917.894,95.438,540.548,538.97,0.0
52471.0,STARLINK-3862,PAYLOAD,2023-03-14 13:09:47,15.08848333,0.0001109,53.2151,277.4537,78.2701,281.8416,0.00037826,5.739e-05,0.0,0 STARLINK-3862,1 52471U 22049W   23073.54846832  .00005739  00000-0  37826-3 0  9994,2 52471  53.2151 277.4537 0001109  78.2701 281.8416 15.08848333 47520,6917.855,95.437,540.487,538.953,0.0
52471.0,STARLINK-3862,PAYLOAD,2023-03-14 19:31:20,15.08869716,0.000125,53.2148,276.2643,57.9379,302.1734,0.0015659,0.00024741,0.0,0 STARLINK-3862,1 52471U 22049W   23073.81342746  .00024741  00000-0  15659-2 0  9992,2 52471  53.2148 276.2643 0001250  57.9379 302.1734 15.08869716 47723,6917.79,95.436,540.519,538.79,0.0
52471.0,STARLINK-3862,PAYLOAD,2023-03-15 05:03:38,15.08842864,0.0001313,53.2148,274.4793,67.9546,292.1586,-0.00012824,-2.328e-05,0.0,0 STARLINK-3862,1 52471U 22049W   23074.21086718 -.00002328  00000-0 -12824-3 0  9992,2 52471  53.2148 274.4793 0001313  67.9546 292.1586 15.08842864 47780,6917.872,95.437,540.645,538.828,0.0
52471.0,STARLINK-3862,PAYLOAD,2023-03-15 13:00:34,15.08849652,0.0001415,53.2145,272.9931,68.6955,291.4188,0.00093964,0.00014702,0.0,0 STARLINK-3862,1 52471U 22049W   23074.54206658  .00014702  00000-0  93964-3 0  9996,2 52471  53.2145 272.9931 0001415  68.6955 291.4188 15.08849652 47679,6917.851,95.437,540.695,538.737,0.0
52471.0,STARLINK-3862,PAYLOAD,2023-03-15 19:22:06,15.08853305,0.0001223,53.2145,271.8038,73.426,286.6867,0.0016718,0.00026429,0.0,0 STARLINK-3862,1 52471U 22049W   23074.80702514  .00026429  00000-0  16718-2 0  9997,2 52471  53.2145 271.8038 0001223  73.4260 286.6867 15.08853305 47877,6917.84,95.437,540.551,538.859,0.0
52471.0,STARLINK-3862,PAYLOAD,2023-03-15 22:32:53,15.08853681,0.0001199,53.2148,271.2091,71.4946,288.6176,0.001782,0.00028197,0.0,0 STARLINK-3862,1 52471U 22049W   23074.93950452  .00028197  00000-0  17820-2 0  9996,2 52471  53.2148 271.2091 0001199  71.4946 288.6176 15.08853681 47731,6917.839,95.437,540.533,538.874,0.0
52471.0,STARLINK-3862,PAYLOAD,2023-03-16 03:19:03,15.08828616,0.0001871,53.2151,270.3163,60.5222,299.5957,0.00040281,6.127e-05,0.0,0 STARLINK-3862,1 52471U 22049W   23075.13823018  .00006127  00000-0  40281-3 0  9993,2 52471  53.2151 270.3163 0001871  60.5222 299.5957 15.08828616 47927,6917.915,95.438,541.075,538.486,0.0
52471.0,STARLINK-3862,PAYLOAD,2023-03-16 12:51:21,15.08828926,0.0001199,53.215,268.5321,95.6437,264.4692,0.00021555,3.143e-05,0.0,0 STARLINK-3862,1 52471U 22049W   23075.53566985  .00003143  00000-0  21555-3 0  9992,2 52471  53.2150 268.5321 0001199  95.6437 264.4692 15.08828926 47821,6917.914,95.438,540.609,538.95,0.0
52471.0,STARLINK-3862,PAYLOAD,2023-03-16 19:12:54,15.08831451,0.0001113,53.2149,267.3435,82.1788,277.9331,0.0012431,0.00019547,0.0,0 STARLINK-3862,1 52471U 22049W   23075.80063419  .00019547  00000-0  12431-2 0  9993,2 52471  53.2149 267.3435 0001113  82.1788 277.9331 15.08831451 47868,6917.907,95.438,540.541,539.002,0.0
52471.0,STARLINK-3862,PAYLOAD,2023-03-17 12:42:09,15.08845317,0.000119,53.2148,264.0719,83.6695,276.4432,0.0010039,0.00015727,0.0,0 STARLINK-3862,1 52471U 22049W   23076.52927647  .00015727  00000-0  10039-2 0  9993,2 52471  53.2148 264.0719 0001190  83.6695 276.4432 15.08845317 48137,6917.864,95.437,540.552,538.906,0.0
52471.0,STARLINK-3862,PAYLOAD,2023-03-17 22:14:27,15.08861378,0.0001167,53.2149,262.2876,82.8296,277.2829,0.0011057,0.00017363,0.0,0 STARLINK-3862,1 52471U 22049W   23076.92671187  .00017363  00000-0  11057-2 0  9991,2 52471  53.2149 262.2876 0001167  82.8296 277.2829 15.08861378 48037,6917.815,95.436,540.487,538.873,0.0
52471.0,STARLINK-3862,PAYLOAD,2023-03-18 03:00:37,15.08844185,0.0001441,53.2154,261.3956,59.8567,300.2568,0.00051063,7.849e-05,0.0,0 STARLINK-3862,1 52471U 22049W   23077.12543535  .00007849  00000-0  51063-3 0  9999,2 52471  53.2154 261.3956 0001441  59.8567 300.2568 15.08844185 48227,6917.868,95.437,540.729,538.736,0.0
52471.0,STARLINK-3862,PAYLOAD,2023-03-18 22:05:14,15.08862235,0.0001035,53.2149,257.8268,84.5994,275.5116,0.00079433,0.00012384,0.0,0 STARLINK-3862,1 52471U 22049W   23077.92030694  .00012384  00000-0  79433-3 0  9995,2 52471  53.2149 257.8268 0001035  84.5994 275.5116 15.08862235 48189,6917.812,95.436,540.393,538.961,0.0
52471.0,STARLINK-3862,PAYLOAD,2023-03-19 04:26:47,15.08845338,0.0001071,53.2151,256.6372,89.3918,270.7196,0.00010388,1.366e-05,0.0,0 STARLINK-3862,1 52471U 22049W   23078.18526815  .00001366  00000-0  10388-3 0  9991,2 52471  53.2151 256.6372 0001071  89.3918 270.7196 15.08845338 48386,6917.864,95.437,540.47,538.988,0.0
52471.0,STARLINK-3862,PAYLOAD,2023-03-19 12:23:42,15.08844123,0.0001069,53.2147,255.1505,86.1547,273.9568,0.00018023,2.582e-05,0.0,0 STARLINK-3862,1 52471U 22049W   23078.51646890  .00002582  00000-0  18023-3 0  9999,2 52471  53.2147 255.1505 0001069  86.1547 273.9568 15.08844123 48270,6917.868,95.437,540.472,538.993,0.0
52471.0,STARLINK-3862,PAYLOAD,2023-03-19 20:20:38,15.08853207,0.0001043,53.2147,253.6639,78.9878,281.1231,0.00062613,9.695e-05,0.0,0 STARLINK-3862,1 52471U 22049W   23078.84766715  .00009695  00000-0  62613-3 0  9990,2 52471  53.2147 253.6639 0001043  78.9878 281.1231 15.08853207 48326,6917.84,95.437,540.427,538.983,0.0
52471.0,STARLINK-3862,PAYLOAD,2023-03-20 04:17:34,15.08836902,0.0001117,53.2149,252.1761,76.8041,283.3075,0.00024946,3.684e-05,0.0,0 STARLINK-3862,1 52471U 22049W   23079.17887121  .00003684  00000-0  24946-3 0  9991,2 52471  53.2149 252.1761 0001117  76.8041 283.3075 15.08836902 48535,6917.89,95.438,540.528,538.982,0.0
